DELTA 2 R/B             
1 25876U 99041E   20097.35004164 -.00000064  00000-0  30694-4 0  9999
2 25876  51.7632 234.9725 0531631 133.8149 230.8031 14.04415494 58493
HELIOS 1B               
1 25977U 99064A   20097.47330548  .00000049  00000-0  13242-4 0  9999
2 25977  98.2703 249.8874 0001248 153.2716 206.8560 14.82469181364456
TERRA                   
1 25994U 99068A   20097.47969645 -.00000006  00000-0  87159-5 0  9991
2 25994  98.2170 172.7509 0001134  89.5954 270.5378 14.57122323 79837
SL-16 R/B               
1 26070U 00006B   20096.87222684  .00000102  00000-0  76638-4 0  9994
2 26070  71.0035 325.7745 0018515 238.5796 121.3516 14.15464957 42366
TITAN 4B R/B            
1 26474U 00047B   20096.90816380  .00000042  00000-0  14654-4 0  9996
2 26474  67.9928 275.3767 0060928 276.7070  82.7141 14.95933335 68391
ENVISAT                 
1 27386U 02009A   20097.25678005  .00000025  00000-0  21848-4 0  9992
2 27386  98.1391 108.0941 0001411  90.8745 278.9852 14.37976405948246
IDEFIX & ARIANE 42P R/B 
1 27422U 02021B   20097.49027976 -.00000014  00000-0  10798-4 0  9999
2 27422  98.3435  61.5677 0013469  84.0129 276.2588 14.29284853934886
AQUA                    
1 27424U 02022A   20097.38309369  .00000068  00000-0  25072-4 0  9998
2 27424  98.2036  39.0734 0001198 149.0061 322.7733 14.57112277953376
CZ-4B R/B               
1 27432U 02024C   20097.53047347 -.00000023  00000-0  12070-4 0  9997
2 27432  99.0883  98.5026 0050821  20.3490  88.8813 14.14091223923569
MIDORI II (ADEOS-II)    
1 27597U 02056A   20097.40890609  .00000023  00000-0  26919-4 0  9993
2 27597  98.5129  46.8338 0001104 134.6183 225.5088 14.27439881901535
H-2A R/B                
1 27601U 02056E   20097.56588230  .00000059  00000-0  35776-4 0  9990
2 27601  98.2353 137.0042 0073185 131.2076 347.8905 14.31943339904402
CZ-4B R/B               
1 28059U 03049C   20097.20326712  .00000005  00000-0  13016-4 0  9991
2 28059  98.4875  12.9133 0050198   0.9023 359.2254 14.52594030872340
CZ-2C R/B               
1 28222U 04012C   20097.38575986  .00000380  00000-0  26809-4 0  9992
2 28222  97.6692  59.7716 0045624 277.0945 235.6705 15.10339559875118
SL-16 R/B               
1 28353U 04021B   20097.41515295 -.00000181  00000-0 -69898-4 0  9994
2 28353  71.0000  90.4103 0002506  75.3897 284.7503 14.14232896816958
CZ-4B R/B               
1 28415U 04035C   20097.45221812  .00000388  00000-0  29707-4 0  9993
2 28415  97.6232 139.7838 0050330 236.8432 122.7962 15.06830322852799
CZ-2C R/B               
1 28480U 04046B   20097.56216913 -.00000001  00000-0  14091-4 0  9998
2 28480  98.0879 138.0469 0143164  78.1066  39.9165 14.25720028800173
ARIANE 5 R/B            
1 28499U 04049H   20097.30474745  .00000052  00000-0  13687-4 0  9997
2 28499  98.0492 198.8739 0092989 145.8372 278.6771 14.80017826825424
CZ-2D R/B               
1 28738U 05024B   20097.51089063  .00000221  00000-0  16514-4 0  9995
2 28738  97.3895 122.4451 0013588  74.9831 285.2902 15.11993432810530
SUZAKU (ASTRO-EII)      
1 28773U 05025A   20097.52388162  .00000792  00000-0  34247-4 0  9994
2 28773  31.3815 124.3504 0004528 204.3762 155.6671 15.17473955813024
ALOS (DAICHI)           
1 28931U 06002A   20097.51943231  .00000092  00000-0  26657-4 0  9998
2 28931  97.8411  86.7932 0001135  33.4892 326.6401 14.62695667757181
H-2A R/B                
1 28932U 06002B   20097.38051053  .00000108  00000-0  16386-4 0  9992
2 28932  98.3183  83.3711 0088329 196.4911 311.3802 14.92179712770399
AKARI (ASTRO-F)         
1 28939U 06005A   20097.37409588  .00001713  00000-0  48348-4 0  9997
2 28939  98.2255  63.2480 0093308 215.6588 143.8396 15.33943214769848
RESURS-DK 1             
1 29228U 06021A   20097.18321092  .00000049  00000-0  11042-4 0  9991
2 29228  69.9377  11.9787 0006905 234.5635 125.4882 15.02525199761897
GENESIS 1               
1 29252U 06029A   20097.54042035  .00000206  00000-0  20122-4 0  9997
2 29252  64.5219 176.7820 0019471 180.5347 179.5759 15.18074252757186
CZ-4B R/B               
1 29507U 06046C   20097.14245980  .00000904  00000-0  74811-4 0  9998
2 29507  97.7511 119.1842 0048789  47.4417 313.0909 15.00547353734578
CZ-2C R/B               
1 31114U 07010B   20096.83462495  .00000060  00000-0  46423-4 0  9995
2 31114  98.2713 314.5513 0060754 118.2768 242.4559 14.19315097672702
COSMO-SKYMED 1          
1 31598U 07023A   20097.51164784 -.00000207  00000-0 -19484-4 0  9993
2 31598  97.8889 281.7190 0001489  89.5396 270.5989 14.82155207694179
GENESIS 2               
1 31789U 07028A   20097.58524669  .00000228  00000-0  21657-4 0  9995
2 31789  64.5035 218.0742 0048890 253.6752 105.8991 15.17208183704275
COSMOS 2428             
1 31792U 07029A   20097.32488083 -.00000267  00000-0 -11874-3 0  9995
2 31792  70.9207  64.4212 0007020 188.0575 172.0434 14.12368851658684
SL-16 R/B               
1 31793U 07029B   20097.22723738 -.00000232  00000-0 -96133-4 0  9998
2 31793  70.9782  38.0793 0002473 280.8478 225.2426 14.14430402659513
KORONAS-FOTON           
1 33504U 09003A   20097.07590935  .00000351  00000-0  16723-4 0  9995
2 33504  82.4394 294.8385 0019468 165.1444 195.0365 15.15602137616428
H-2A R/B                
1 38341U 12025E   20097.30385786  .00000154  00000-0  25441-4 0  9997
2 38341  98.4891 247.6928 0056798 103.6370 257.1176 14.84007743426664
CUSAT 2 & FALCON 9 R/B  
1 39271U 13055G   20097.38012281  .00006718  00000-0  16105-3 0  9997
2 39271  80.9693 344.5002 0591933  26.9487 336.1171 14.47368823340301
SL-4 R/B                
1 39679U 14021B   20097.33316355  .00000397  00000-0  37504-4 0  9991
2 39679  51.6153  82.0983 0172564  55.9536 305.7684 15.06339341328477
ALOS-2                  
1 39766U 14029A   20097.54978992 -.00000389  00000-0 -45209-4 0  9994
2 39766  97.9190 195.1807 0001584  88.4679 271.6699 14.79469441317065
SL-27 R/B               
1 40354U 14084B   20097.55225497  .00000697  00000-0  18310-4 0  9999
2 40354  74.7386 176.8370 0036892  40.3876 320.0064 15.40117333297068
YAOGAN 29               
1 41038U 15069A   20097.52485457  .00000026  00000-0  10335-4 0  9999
2 41038  98.0065  85.6334 0002174 101.6535 258.4918 14.80441748235637
ASTRO-H (HITOMI)        
1 41337U 16012A   20097.46661482  .00000236  00000-0  12250-4 0  9998
2 41337  31.0052 106.1813 0012333  79.8343 280.3682 14.98667010226693
SHENZHOU-11 MODULE      
1 41868U 16061G   20097.47105384  .00036487  87516-5  11170-3 0  9994
2 41868  42.7883 229.8665 0013253 342.1989  92.1663 15.92124518194570
HXMT (HUIYAN)           
1 42758U 17034A   20097.44506825  .00000194  00000-0  25832-4 0  9991
2 42758  43.0182  71.0158 0012320 292.9977 211.6974 15.08790772154995
CZ-2C R/B               
1 43521U 18054D   20097.52211386  .00000637  00000-0  36509-4 0  9992
2 43521  35.1535 263.2464 0083192 203.7975 155.8879 15.10950421 98268
AEOLUS                  
1 43600U 18066A   20097.52968556  .00024807  00000-0  96831-4 0  9990
2 43600  96.7207 104.9999 0005926  92.6510 267.5442 15.87017985 93960
SAOCOM 1A               
1 43641U 18076A   20097.51982111  .00000010  00000-0  78771-5 0  9992
2 43641  97.8889 284.6601 0001428  82.0792 278.0590 14.82150446 80946
CREW DRAGON DEMO-1 DEB  
1 44064U 19011B   20097.08202125  .00013227  00000-0  14678-3 0  9992
2 44064  51.6395 318.7260 0004454 134.3861 225.7483 15.63286834 61586
